[{"OBJECT_NAME":"STARLINK-30603","OBJECT_ID":"2023-160F","EPOCH":"2026-03-09T02:03:07.299360","MEAN_MOTION":15.26740098,"ECCENTRICITY":8.567e-5,"INCLINATION":43.0002,"RA_OF_ASC_NODE":81.2749,"ARG_OF_PERICENTER":263.4844,"MEAN_ANOMALY":96.591,"EPHEMERIS_TYPE":0,"CLASSIFICATION_TYPE":"U","NORAD_CAT_ID":58080,"ELEMENT_SET_NO":999,"REV_AT_EPOCH":13285,"BSTAR":-0.00014195897,"MEAN_MOTION_DOT":-4.065e-5,"MEAN_MOTION_DDOT":0},{"OBJECT_NAME":"MESON-1","OBJECT_ID":"2024-043AK","EPOCH":"2026-03-09T21:36:16.481664","MEAN_MOTION":15.29893494,"ECCENTRICITY":0.00095452,"INCLINATION":97.5469,"RA_OF_ASC_NODE":205.2839,"ARG_OF_PERICENTER":227.1432,"MEAN_ANOMALY":132.9007,"EPHEMERIS_TYPE":0,"CLASSIFICATION_TYPE":"U","NORAD_CAT_ID":59131,"ELEMENT_SET_NO":999,"REV_AT_EPOCH":11189,"BSTAR":0.0002974823,"MEAN_MOTION_DOT":8.544e-5,"MEAN_MOTION_DDOT":0}]
